[
    {
        "Altitude(m)": 702759.1614430973,
        "Argument of Periapsis(deg)": 0.010251109067964361,
        "Eccentricity": 0.0,
        "Inclination(deg)": 45.0,
        "Latitude(deg)": 15.621497785679095,
        "Longitude(deg)": 58.159439527253404,
        "Mean Anomaly(deg)": -202.3474050172672,
        "RAAN(deg)": 354.99032325268763,
        "Satellite Name": "Constellation 1 1571",
        "Satellite Number": 1571,
        "Semi-Major Axis(m)": 7083131.272910544,
        "Time(s)": 171
    },
    {
        "Altitude(m)": 702757.5374654676,
        "Argument of Periapsis(deg)": 0.010311057074209765,
        "Eccentricity": 0.0,
        "Inclination(deg)": 45.0,
        "Latitude(deg)": 15.579996094819416,
        "Longitude(deg)": 58.20152384681134,
        "Mean Anomaly(deg)": -202.2867038770174,
        "RAAN(deg)": 354.99026666352205,
        "Satellite Name": "Constellation 1 1571",
        "Satellite Number": 1571,
        "Semi-Major Axis(m)": 7083131.272910544,
        "Time(s)": 172
    },
    {
        "Altitude(m)": 702755.9304676888,
        "Argument of Periapsis(deg)": 0.010371005080455171,
        "Eccentricity": 0.0,
        "Inclination(deg)": 45.0,
        "Latitude(deg)": 15.5384845869587,
        "Longitude(deg)": 58.24358960659397,
        "Mean Anomaly(deg)": -202.2260027367675,
        "RAAN(deg)": 354.9902100743565,
        "Satellite Name": "Constellation 1 1571",
        "Satellite Number": 1571,
        "Semi-Major Axis(m)": 7083131.272910544,
        "Time(s)": 173
    },
    {
        "Altitude(m)": 702754.3404746602,
        "Argument of Periapsis(deg)": 0.010430953086700577,
        "Eccentricity": 0.0,
        "Inclination(deg)": 45.0,
        "Latitude(deg)": 15.496963293459718,
        "Longitude(deg)": 58.28563686148684,
        "Mean Anomaly(deg)": -202.1653015965176,
        "RAAN(deg)": 354.9901534851909,
        "Satellite Name": "Constellation 1 1571",
        "Satellite Number": 1571,
        "Semi-Major Axis(m)": 7083131.272910544,
        "Time(s)": 174
    },
    {
        "Altitude(m)": 702752.7675112183,
        "Argument of Periapsis(deg)": 0.010490901092945983,
        "Eccentricity": 0.0,
        "Inclination(deg)": 45.0,
        "Latitude(deg)": 15.455432245649094,
        "Longitude(deg)": 58.32766566634487,
        "Mean Anomaly(deg)": -202.10460045626766,
        "RAAN(deg)": 354.9900968960253,
        "Satellite Name": "Constellation 1 1571",
        "Satellite Number": 1571,
        "Semi-Major Axis(m)": 7083131.272910544,
        "Time(s)": 175
    },
    {
        "Altitude(m)": 702751.2116021267,
        "Argument of Periapsis(deg)": 0.010550849099191389,
        "Eccentricity": 0.0,
        "Inclination(deg)": 45.0,
        "Latitude(deg)": 15.413891474817522,
        "Longitude(deg)": 58.3696760759918,
        "Mean Anomaly(deg)": -202.04389931601781,
        "RAAN(deg)": 354.9900403068598,
        "Satellite Name": "Constellation 1 1571",
        "Satellite Number": 1571,
        "Semi-Major Axis(m)": 7083131.272910544,
        "Time(s)": 176
    },
    {
        "Altitude(m)": 702749.6727720858,
        "Argument of Periapsis(deg)": 0.010610797105436795,
        "Eccentricity": 0.0,
        "Inclination(deg)": 45.0,
        "Latitude(deg)": 15.372341012219339,
        "Longitude(deg)": 58.41166814522115,
        "Mean Anomaly(deg)": -201.98319817576785,
        "RAAN(deg)": 354.9899837176942,
        "Satellite Name": "Constellation 1 1571",
        "Satellite Number": 1571,
        "Semi-Major Axis(m)": 7083131.272910544,
        "Time(s)": 177
    },
    {
        "Altitude(m)": 702748.1510457188,
        "Argument of Periapsis(deg)": 0.0106707451116822,
        "Eccentricity": 0.0,
        "Inclination(deg)": 45.0,
        "Latitude(deg)": 15.330780889073166,
        "Longitude(deg)": 58.45364176069823,
        "Mean Anomaly(deg)": -201.922497035518,
        "RAAN(deg)": 354.9899271285287,
        "Satellite Name": "Constellation 1 1571",
        "Satellite Number": 1571,
        "Semi-Major Axis(m)": 7083131.272910544,
        "Time(s)": 178
    },
    {
        "Altitude(m)": 702746.6464475804,
        "Argument of Periapsis(deg)": 0.010730693117927606,
        "Eccentricity": 0.0,
        "Inclination(deg)": 45.0,
        "Latitude(deg)": 15.289211136562141,
        "Longitude(deg)": 58.495597313349144,
        "Mean Anomaly(deg)": -201.8617958952681,
        "RAAN(deg)": 354.98987053936304,
        "Satellite Name": "Constellation 1 1571",
        "Satellite Number": 1571,
        "Semi-Major Axis(m)": 7083131.272910544,
        "Time(s)": 179
    },
    {
        "Altitude(m)": 702745.1590021607,
        "Argument of Periapsis(deg)": 0.01079064112417301,
        "Eccentricity": 0.0,
        "Inclination(deg)": 45.0,
        "Latitude(deg)": 15.247631785833336,
        "Longitude(deg)": 58.53753468977802,
        "Mean Anomaly(deg)": -201.80109475501817,
        "RAAN(deg)": 354.98981395019746,
        "Satellite Name": "Constellation 1 1571",
        "Satellite Number": 1571,
        "Semi-Major Axis(m)": 7083131.272910544,
        "Time(s)": 180
    },
    {
        "Altitude(m)": 702743.6887338712,
        "Argument of Periapsis(deg)": 0.010850589130418416,
        "Eccentricity": 0.0,
        "Inclination(deg)": 45.0,
        "Latitude(deg)": 15.206042867998438,
        "Longitude(deg)": 58.57945394465547,
        "Mean Anomaly(deg)": -201.74039361476824,
        "RAAN(deg)": 354.98975736103193,
        "Satellite Name": "Constellation 1 1571",
        "Satellite Number": 1571,
        "Semi-Major Axis(m)": 7083131.272910544,
        "Time(s)": 181
    },
    {
        "Altitude(m)": 702742.235667059,
        "Argument of Periapsis(deg)": 0.01091053713666382,
        "Eccentricity": 0.0,
        "Inclination(deg)": 45.0,
        "Latitude(deg)": 15.164444414133733,
        "Longitude(deg)": 58.62135513262127,
        "Mean Anomaly(deg)": -201.67969247451833,
        "RAAN(deg)": 354.98970077186635,
        "Satellite Name": "Constellation 1 1571",
        "Satellite Number": 1571,
        "Semi-Major Axis(m)": 7083131.272910544,
        "Time(s)": 182
    },
    {
        "Altitude(m)": 702740.7998260035,
        "Argument of Periapsis(deg)": 0.010970485142909228,
        "Eccentricity": 0.0,
        "Inclination(deg)": 45.0,
        "Latitude(deg)": 15.122836455280092,
        "Longitude(deg)": 58.66323830828492,
        "Mean Anomaly(deg)": -201.6189913342685,
        "RAAN(deg)": 354.98964418270083,
        "Satellite Name": "Constellation 1 1571",
        "Satellite Number": 1571,
        "Semi-Major Axis(m)": 7083131.272910544,
        "Time(s)": 183
    },
    {
        "Altitude(m)": 702739.3812349092,
        "Argument of Periapsis(deg)": 0.011030433149154634,
        "Eccentricity": 0.0,
        "Inclination(deg)": 45.0,
        "Latitude(deg)": 15.081219022443195,
        "Longitude(deg)": 58.70510352622509,
        "Mean Anomaly(deg)": -201.5582901940186,
        "RAAN(deg)": 354.9895875935352,
        "Satellite Name": "Constellation 1 1571",
        "Satellite Number": 1571,
        "Semi-Major Axis(m)": 7083131.272910544,
        "Time(s)": 184
    },
    {
        "Altitude(m)": 702737.9799179054,
        "Argument of Periapsis(deg)": 0.01109038115540004,
        "Eccentricity": 0.0,
        "Inclination(deg)": 45.0,
        "Latitude(deg)": 15.03959214659345,
        "Longitude(deg)": 58.74695067289299,
        "Mean Anomaly(deg)": -201.49758905376862,
        "RAAN(deg)": 354.9895310043696,
        "Satellite Name": "Constellation 1 1571",
        "Satellite Number": 1571,
        "Semi-Major Axis(m)": 7083131.272910544,
        "Time(s)": 185
    },
    {
        "Altitude(m)": 702736.59589906,
        "Argument of Periapsis(deg)": 0.011150329161645444,
        "Eccentricity": 0.0,
        "Inclination(deg)": 45.0,
        "Latitude(deg)": 14.997955858666893,
        "Longitude(deg)": 58.788780139000536,
        "Mean Anomaly(deg)": -201.4368879135188,
        "RAAN(deg)": 354.9894744152041,
        "Satellite Name": "Constellation 1 1571",
        "Satellite Number": 1571,
        "Semi-Major Axis(m)": 7083131.272910544,
        "Time(s)": 186
    },
    {
        "Altitude(m)": 702735.2292023657,
        "Argument of Periapsis(deg)": 0.01121027716789085,
        "Eccentricity": 0.0,
        "Inclination(deg)": 45.0,
        "Latitude(deg)": 14.95631018956398,
        "Longitude(deg)": 58.83059181093787,
        "Mean Anomaly(deg)": -201.37618677326884,
        "RAAN(deg)": 354.9894178260385,
        "Satellite Name": "Constellation 1 1571",
        "Satellite Number": 1571,
        "Semi-Major Axis(m)": 7083131.272910544,
        "Time(s)": 187
    },
    {
        "Altitude(m)": 702733.8798517425,
        "Argument of Periapsis(deg)": 0.011270225174136258,
        "Eccentricity": 0.0,
        "Inclination(deg)": 45.0,
        "Latitude(deg)": 14.914655170150718,
        "Longitude(deg)": 58.87238574316179,
        "Mean Anomaly(deg)": -201.31548563301902,
        "RAAN(deg)": 354.989361236873,
        "Satellite Name": "Constellation 1 1571",
        "Satellite Number": 1571,
        "Semi-Major Axis(m)": 7083131.272910544,
        "Time(s)": 188
    },
    {
        "Altitude(m)": 702732.5478710429,
        "Argument of Periapsis(deg)": 0.011330173180381662,
        "Eccentricity": 0.0,
        "Inclination(deg)": 45.0,
        "Latitude(deg)": 14.872990831258301,
        "Longitude(deg)": 58.91416199009865,
        "Mean Anomaly(deg)": -201.25478449276906,
        "RAAN(deg)": 354.9893046477074,
        "Satellite Name": "Constellation 1 1571",
        "Satellite Number": 1571,
        "Semi-Major Axis(m)": 7083131.272910544,
        "Time(s)": 189
    }
]